UNKNOWN                 
1 81011U          26181.98688272  .00002686  00000+0  14764-2 0  9994
2 81011  99.3608 204.2281 0131044 316.4690  42.6193 14.08347449 11695
UNKNOWN                 
1 81015U          26182.00131670  .00002283  00000+0  12608-2 0  9995
2 81015  99.3617 204.2395 0131046 316.4447 105.5895 14.08283775 10853
UNKNOWN                 
1 81021U          26181.77053206  .00001381  00000+0  50500-3 0  9995
2 81021  74.0396 310.2937 0026278 347.0726  12.9749 14.33687050 14613
UNKNOWN                 
1 81036U          26183.50229610  .00001704  00000+0  42168-2 0  9997
2 81036  66.1004 207.5707 2564784 116.2031 272.4268  9.33157957 40548
UNKNOWN                 
1 81052U          26181.78645705  .00004760  00000+0  12543-2 0  9999
2 81052  65.7691 242.9529 0554872 211.4018 145.2797 13.85213792628005
UNKNOWN                 
1 81069U          26178.52450477  .00002739  00000+0  35767-2 0  9992
2 81069 100.3826  96.7932 0064124 282.8464  76.5516 13.61867671542707
UNKNOWN                 
1 81111U          26183.28302880  .00023251  00000+0  40642-2 0  9993
2 81111  62.8523 188.5157 3842544   5.3625 357.8304  7.61175323287233
UNKNOWN                 
1 81123U          26182.02913088  .00001028  00000+0  10014-2 0  9993
2 81123  99.9673 279.8227 0002122 244.3877 115.7055 13.82062375633945
UNKNOWN                 
1 81134U          26183.21135307  .00000212  00000+0  75160-3 0  9995
2 81134  90.2497   8.6253 0023968 218.6365 141.3039 12.93053363488649
UNKNOWN                 
1 81219U          26180.38558605  .00000367  00000+0  32663-3 0  9996
2 81219  82.9245 216.8964 0021749  21.1558 339.0497 13.81986533634953
UNKNOWN                 
1 81228U          26183.65224114  .00006305  00000+0  18521-2 0  9998
2 81228  70.5179 182.6453 0054477  58.7411 301.9043 14.43280890655201
UNKNOWN                 
1 81254U          26180.73463737  .00003611  00000+0  23084-2 0  9996
2 81254 100.3831 275.2596 0070123 263.3147  96.0030 14.03045155640784
UNKNOWN                 
1 81279U          26182.35455232  .00001387  00000+0  53620-3 0  9992
2 81279  98.1030 230.4439 0207143 156.3988 204.6863 14.20423586491077
UNKNOWN                 
1 81301U          26182.26698823  .00000151  00000+0  22253-3 0  9999
2 81301  66.7567 176.8832 0081374  95.8921 283.1178 13.76827466633961
UNKNOWN                 
1 81311U          26180.69201478  .00000498  00000+0  11093-3 0  9995
2 81311  98.7063 252.0649 0129830 235.9352 276.1973 14.56819392668552
UNKNOWN                 
1 81317U          26182.05125582  .00000040  00000+0  17349-3 0  9997
2 81317  67.1366  95.5090 0218532 255.9646 122.6147 13.38096387615437
UNKNOWN                 
1 81323U          26179.75824475  .00006387  00000+0  79104-3 0  9991
2 81323  65.7463 191.7523 0322944 209.7494 148.4905 14.52815350141772
UNKNOWN                 
1 81343U          26183.46185076  .00006157  00000+0  41511-3 0  9999
2 81343  85.8679  91.2964 0003114 234.6423 125.4521 15.06474213484669
UNKNOWN                 
1 81359U          26178.58871385  .00000547  00000+0  57674-3 0  9992
2 81359  66.8019 300.7075 0116099 195.2060 164.5513 13.79149665632624
UNKNOWN                 
1 81366U          26181.82075838  .00000332  00000+0  14294-3 0  9993
2 81366  65.8836 318.2876 0719847 344.6318  13.3846 13.45633309 92870
UNKNOWN                 
1 81371U          26180.78267182  .00003742  00000+0  58525-3 0  9991
2 81371  98.8233 298.4878 0069178 103.8308 257.0607 14.71867613671101
UNKNOWN                 
1 81386U          26179.96906707  .00005877  00000+0  18587-2 0  9992
2 81386  71.0477 285.6704 0086104 130.7053 230.1604 14.38414279652725
UNKNOWN                 
1 81390U          26180.98844552  .00000305  00000+0  26811-2 0  9990
2 81390 103.1004  87.9305 0167945 154.3328 206.6182 12.35597838524706
UNKNOWN                 
1 81392U          26178.99225832  .00002593  00000+0  24133-2 0  9990
2 81392 100.4018 192.4583 0033441 244.9650 144.4528 13.82918955629439
UNKNOWN                 
1 81405U          26181.99360697  .00001146  00000+0  88016-3 0  9992
2 81405  99.4521 238.2679 0159738  48.8191 312.6618 13.89464380589602
UNKNOWN                 
1 81406U          26182.09670235  .00000443  00000+0  20469-3 0  9994
2 81406  65.8202  63.5343 0866225 231.4687 120.5595 13.12810959559979
UNKNOWN                 
1 81427U          26176.62052630  .00000563  00000+0  34972-3 0  9999
2 81427  98.7295  57.3290 0082998 208.4796 151.1825 14.07250776579173
UNKNOWN                 
1 81438U          26181.95791900  .00002253  00000+0  32723-2 0  9992
2 81438 100.3407  67.7187 0052431 314.2322  45.4515 13.55768346619063
UNKNOWN                 
1 81439U          26183.23447513  .00000666  00000+0  20143-2 0  9993
2 81439  67.1603 112.2130 0593504  78.6530 288.0531 12.62712970287332
UNKNOWN                 
1 81478U          26183.55409083  .00003519  00000+0  12391-2 0  9997
2 81478  98.9510 105.9018 0144186 131.4370  44.7950 14.29826188651762
UNKNOWN                 
1 81488U          26180.94864080  .00000460  00000+0  71273-3 0  9997
2 81488  99.9780  61.3521 0042978 224.4360 152.2159 13.56649767623642
UNKNOWN                 
1 81497U          26179.52926595  .00002845  00000+0  25281-2 0  9995
2 81497 100.2968  98.2684 0026256 225.3716 316.9639 13.85589733243672
UNKNOWN                 
1 81499U          26182.79168785  .00002045  00000+0  55563-3 0  9998
2 81499  74.0457 205.1989 0003557 282.8698  77.2064 14.48177201511511
UNKNOWN                 
1 81535U          26183.64717539  .00000757  00000+0  32594-3 0  9998
2 81535  98.1841 254.2022 0232624 284.0209  73.5205 14.13866080415926
UNKNOWN                 
1 81536U          26183.57187720  .00000558  00000+0  36641-2 0  9999
2 81536 101.9677  52.1339 0019214 280.7456 109.0575 12.56113617577153
UNKNOWN                 
1 81537U          26180.93431043  .00000068  00000+0  66334-4 0  9997
2 81537  71.0395  57.0935 0078205 213.0918 146.5295 14.07220260648482
UNKNOWN                 
1 81552U          26177.95899137  .00000713  00000+0  16104-2 0  9999
2 81552  99.0657  82.7070 0255500 267.1523  90.0332 13.18505752605102
UNKNOWN                 
1 81599U          26183.36313809  .00000731  00000+0  13897-2 0  9995
2 81599  67.2911 204.7236 0251343 298.7224  77.4375 13.31649502611922
UNKNOWN                 
1 81605U          26181.53099832  .00001825  00000+0  79145-2 0  9990
2 81605  56.4376   7.5907 0145747  58.8523 302.6604 12.81633789211812
UNKNOWN                 
1 81614U          26182.93585645  .00005430  00000+0  30740-1 0  9990
2 81614 101.8253 178.1182 0412829 121.7062 242.4937 12.39355578562883
UNKNOWN                 
1 81615U          26181.07939857  .00000966  00000+0  36868-3 0  9991
2 81615  65.8284 317.3166 0767674  43.2102 322.6616 13.34927302609467
UNKNOWN                 
1 81617U          26178.91499249  .00000313  00000+0  21081-2 0  9994
2 81617 101.2772 349.9196 0034818 202.2282 157.7286 12.57688142577894
UNKNOWN                 
1 81624U          26179.84753603  .00004646  00000+0  71180-3 0  9991
2 81624  66.9744 338.3323 0055904  66.2885 294.4089 14.73530126668875
UNKNOWN                 
1 81640U          26183.09914472  .00000275  00000+0  29772-3 0  9998
2 81640  65.8244  80.2121 0985347 355.6509   3.6373 12.57366330535396
UNKNOWN                 
1 81652U          26181.75887480  .00000192  00000+0  29478-3 0  9991
2 81652 102.1424 116.7326 0362053 272.4541 113.4050 13.44631024605539
UNKNOWN                 
1 81667U          26183.24898413  .00002233  00000+0  59460-3 0  9993
2 81667  74.0388  19.1077 0014162 260.9942  98.9615 14.49050725485823
UNKNOWN                 
1 81674U          26170.49682648  .00000301  00000+0  21406-3 0  9998
2 81674  66.8225 248.7848 0018499  85.6501 293.0016 14.10356822640333
UNKNOWN                 
1 81683U          26183.42652871  .00003496  00000+0  74259-3 0  9992
2 81683  81.2155  82.4394 0025609  40.6610 319.6493 14.58733526665252
UNKNOWN                 
1 81693U          26182.83271378 -.00000434  00000+0 -27813-2 0  9990
2 81693 101.1097 227.4262 0386464  65.7300 298.3624 12.26263126992415
UNKNOWN                 
1 81745U          26183.59891132  .00002197  00000+0  69412-3 0  9996
2 81745  71.0005 305.2992 0006350 259.6247 100.4174 14.41311429658825
UNKNOWN                 
1 81749U          26173.82715785  .00000092  00000+0  42920-3 0  9991
2 81749  99.6685 181.1373 0370029 149.5136 336.8178 12.77668730586538
UNKNOWN                 
1 81775U          26181.39871031  .00004425  00000+0  13028-2 0  9998
2 81775  82.9172  58.4203 0018324 349.4993  10.5816 14.43426714654057
UNKNOWN                 
1 81792U          26183.22898190  .00001044  00000+0  39945-3 0  9997
2 81792  65.7973   2.7448 0889958 193.5162 164.0550 13.11464977106455
UNKNOWN                 
1 81812U          26183.13391269  .00000632  00000+0  47063-2 0  9996
2 81812 103.7605 125.7016 0246305 265.0956  92.1940 12.38843740565493
UNKNOWN                 
1 81816U          26183.37993105  .00000812  00000+0  64841-3 0  9997
2 81816  66.2368 153.1842 0164132 130.8330 230.7108 13.90009124637361
UNKNOWN                 
1 81819U          26174.23168172  .00000226  00000+0  18345-2 0  9999
2 81819 102.1775 279.1415 0038791 117.9209 242.5794 12.47966479572022
UNKNOWN                 
1 81824U          26183.17409550  .00004808  00000+0  16149-2 0  9996
2 81824  65.8414 146.3176 0048227 240.6206 119.0068 14.37387187653529
UNKNOWN                 
1 81833U          26182.96200065  .00000289  00000+0  10200-2 0  9993
2 81833  90.2422   7.3678 0025277 214.7869 145.1597 12.93808616478538
UNKNOWN                 
1 81838U          26163.36684236  .00004530  00000+0  96509-3 0  9997
2 81838  67.7578 150.5145 0041260 202.6413 228.4401 14.59250502659815
